STARLINK-1181
1 25086C 20006AU  21324.77582561  .00008885  00000-0  58138-3 0  3243
2 25086  53.0022  91.9413 0002261 102.2216  42.4768 15.07261417    15
